[
    {
        "Altitude(m)": 557166.798574354,
        "Argument of Periapsis(deg)": 0.026491964442854003,
        "Eccentricity": 0.0,
        "Inclination(deg)": 53.0,
        "Latitude(deg)": -14.278478752053582,
        "Longitude(deg)": 110.82062600208661,
        "Mean Anomaly(deg)": -17.815328529689637,
        "RAAN(deg)": 224.96057347411207,
        "Satellite Name": "Starlink Shell 1 1008",
        "Satellite Number": 1008,
        "Semi-Major Axis(m)": 6931778.249405717,
        "Time(s)": 760
    },
    {
        "Altitude(m)": 557031.0044851914,
        "Argument of Periapsis(deg)": 0.02684054292236524,
        "Eccentricity": 0.0,
        "Inclination(deg)": 53.0,
        "Latitude(deg)": -13.784086150481281,
        "Longitude(deg)": 111.17907626545887,
        "Mean Anomaly(deg)": -17.188497326132893,
        "RAAN(deg)": 224.9600547040346,
        "Satellite Name": "Starlink Shell 1 1008",
        "Satellite Number": 1008,
        "Semi-Major Axis(m)": 6931778.249405717,
        "Time(s)": 770
    },
    {
        "Altitude(m)": 556897.2952666876,
        "Argument of Periapsis(deg)": 0.027189121401876473,
        "Eccentricity": 0.0,
        "Inclination(deg)": 53.0,
        "Latitude(deg)": -13.28901341370179,
        "Longitude(deg)": 111.5358595657055,
        "Mean Anomaly(deg)": -16.561666122576145,
        "RAAN(deg)": 224.95953593395714,
        "Satellite Name": "Starlink Shell 1 1008",
        "Satellite Number": 1008,
        "Semi-Major Axis(m)": 6931778.249405717,
        "Time(s)": 780
    },
    {
        "Altitude(m)": 556765.7129067563,
        "Argument of Periapsis(deg)": 0.02753769988138771,
        "Eccentricity": 0.0,
        "Inclination(deg)": 53.0,
        "Latitude(deg)": -12.793287839210699,
        "Longitude(deg)": 111.89104311162077,
        "Mean Anomaly(deg)": -15.934834919019474,
        "RAAN(deg)": 224.95901716387965,
        "Satellite Name": "Starlink Shell 1 1008",
        "Satellite Number": 1008,
        "Semi-Major Axis(m)": 6931778.249405717,
        "Time(s)": 790
    },
    {
        "Altitude(m)": 556636.2983000386,
        "Argument of Periapsis(deg)": 0.02788627836089895,
        "Eccentricity": 0.0,
        "Inclination(deg)": 53.0,
        "Latitude(deg)": -12.296936383979189,
        "Longitude(deg)": 112.24469292800379,
        "Mean Anomaly(deg)": -15.308003715462728,
        "RAAN(deg)": 224.9584983938022,
        "Satellite Name": "Starlink Shell 1 1008",
        "Satellite Number": 1008,
        "Semi-Major Axis(m)": 6931778.249405717,
        "Time(s)": 800
    },
    {
        "Altitude(m)": 556509.0912302712,
        "Argument of Periapsis(deg)": 0.02823485684041019,
        "Eccentricity": 0.0,
        "Inclination(deg)": 53.0,
        "Latitude(deg)": -11.799985679965836,
        "Longitude(deg)": 112.59687438662704,
        "Mean Anomaly(deg)": -14.681172511906057,
        "RAAN(deg)": 224.9579796237247,
        "Satellite Name": "Starlink Shell 1 1008",
        "Satellite Number": 1008,
        "Semi-Major Axis(m)": 6931778.249405717,
        "Time(s)": 810
    },
    {
        "Altitude(m)": 556384.1303532025,
        "Argument of Periapsis(deg)": 0.028583435319921423,
        "Eccentricity": 0.0,
        "Inclination(deg)": 53.0,
        "Latitude(deg)": -11.302462049330728,
        "Longitude(deg)": 112.94765273716912,
        "Mean Anomaly(deg)": -14.054341308349287,
        "RAAN(deg)": 224.95746085364723,
        "Satellite Name": "Starlink Shell 1 1008",
        "Satellite Number": 1008,
        "Semi-Major Axis(m)": 6931778.249405717,
        "Time(s)": 820
    },
    {
        "Altitude(m)": 556261.4531800862,
        "Argument of Periapsis(deg)": 0.028932013799432665,
        "Eccentricity": 0.0,
        "Inclination(deg)": 53.0,
        "Latitude(deg)": -10.804391519365831,
        "Longitude(deg)": 113.29709212522687,
        "Mean Anomaly(deg)": -13.427510104792642,
        "RAAN(deg)": 224.95694208356974,
        "Satellite Name": "Starlink Shell 1 1008",
        "Satellite Number": 1008,
        "Semi-Major Axis(m)": 6931778.249405717,
        "Time(s)": 830
    },
    {
        "Altitude(m)": 556141.0960616957,
        "Argument of Periapsis(deg)": 0.029280592278943897,
        "Eccentricity": 0.0,
        "Inclination(deg)": 53.0,
        "Latitude(deg)": -10.305799837152676,
        "Longitude(deg)": 113.64525612314343,
        "Mean Anomaly(deg)": -12.800678901235996,
        "RAAN(deg)": 224.95642331349228,
        "Satellite Name": "Starlink Shell 1 1008",
        "Satellite Number": 1008,
        "Semi-Major Axis(m)": 6931778.249405717,
        "Time(s)": 840
    },
    {
        "Altitude(m)": 556023.0941729675,
        "Argument of Periapsis(deg)": 0.029629170758455132,
        "Eccentricity": 0.0,
        "Inclination(deg)": 53.0,
        "Latitude(deg)": -9.806712483961356,
        "Longitude(deg)": 113.99220826077013,
        "Mean Anomaly(deg)": -12.173847697679225,
        "RAAN(deg)": 224.9559045434148,
        "Satellite Name": "Starlink Shell 1 1008",
        "Satellite Number": 1008,
        "Semi-Major Axis(m)": 6931778.249405717,
        "Time(s)": 850
    },
    {
        "Altitude(m)": 555907.4814981725,
        "Argument of Periapsis(deg)": 0.02997774923796637,
        "Eccentricity": 0.0,
        "Inclination(deg)": 53.0,
        "Latitude(deg)": -9.307154689401086,
        "Longitude(deg)": 114.33801087518678,
        "Mean Anomaly(deg)": -11.547016494122452,
        "RAAN(deg)": 224.95538577333733,
        "Satellite Name": "Starlink Shell 1 1008",
        "Satellite Number": 1008,
        "Semi-Major Axis(m)": 6931778.249405717,
        "Time(s)": 860
    },
    {
        "Altitude(m)": 555794.290816729,
        "Argument of Periapsis(deg)": 0.030326327717477602,
        "Eccentricity": 0.0,
        "Inclination(deg)": 53.0,
        "Latitude(deg)": -8.807151445336364,
        "Longitude(deg)": 114.68272648180009,
        "Mean Anomaly(deg)": -10.920185290565808,
        "RAAN(deg)": 224.9548670032599,
        "Satellite Name": "Starlink Shell 1 1008",
        "Satellite Number": 1008,
        "Semi-Major Axis(m)": 6931778.249405717,
        "Time(s)": 870
    },
    {
        "Altitude(m)": 555683.5536895858,
        "Argument of Periapsis(deg)": 0.030674906196988847,
        "Eccentricity": 0.0,
        "Inclination(deg)": 53.0,
        "Latitude(deg)": -8.306727519578676,
        "Longitude(deg)": 115.02641662390656,
        "Mean Anomaly(deg)": -10.293354087009037,
        "RAAN(deg)": 224.9543482331824,
        "Satellite Name": "Starlink Shell 1 1008",
        "Satellite Number": 1008,
        "Semi-Major Axis(m)": 6931778.249405717,
        "Time(s)": 880
    },
    {
        "Altitude(m)": 555575.3004462048,
        "Argument of Periapsis(deg)": 0.031023484676500086,
        "Eccentricity": 0.0,
        "Inclination(deg)": 53.0,
        "Latitude(deg)": -7.805907469368886,
        "Longitude(deg)": 115.36914240314194,
        "Mean Anomaly(deg)": -9.666522883452393,
        "RAAN(deg)": 224.95382946310494,
        "Satellite Name": "Starlink Shell 1 1008",
        "Satellite Number": 1008,
        "Semi-Major Axis(m)": 6931778.249405717,
        "Time(s)": 890
    },
    {
        "Altitude(m)": 555469.5601721732,
        "Argument of Periapsis(deg)": 0.03137206315601132,
        "Eccentricity": 0.0,
        "Inclination(deg)": 53.0,
        "Latitude(deg)": -7.304715654659272,
        "Longitude(deg)": 115.71096500984822,
        "Mean Anomaly(deg)": -9.039691679895645,
        "RAAN(deg)": 224.95331069302748,
        "Satellite Name": "Starlink Shell 1 1008",
        "Satellite Number": 1008,
        "Semi-Major Axis(m)": 6931778.249405717,
        "Time(s)": 900
    },
    {
        "Altitude(m)": 555366.3606974336,
        "Argument of Periapsis(deg)": 0.03172064163552255,
        "Eccentricity": 0.0,
        "Inclination(deg)": 53.0,
        "Latitude(deg)": -6.8031762512089005,
        "Longitude(deg)": 116.05194474048184,
        "Mean Anomaly(deg)": -8.412860476338949,
        "RAAN(deg)": 224.95279192294998,
        "Satellite Name": "Starlink Shell 1 1008",
        "Satellite Number": 1008,
        "Semi-Major Axis(m)": 6931778.249405717,
        "Time(s)": 910
    },
    {
        "Altitude(m)": 555265.7285851315,
        "Argument of Periapsis(deg)": 0.0320692201150338,
        "Eccentricity": 0.0,
        "Inclination(deg)": 53.0,
        "Latitude(deg)": -6.301313263503415,
        "Longitude(deg)": 116.39214152781378,
        "Mean Anomaly(deg)": -7.786029272782203,
        "RAAN(deg)": 224.9522731528725,
        "Satellite Name": "Starlink Shell 1 1008",
        "Satellite Number": 1008,
        "Semi-Major Axis(m)": 6931778.249405717,
        "Time(s)": 920
    },
    {
        "Altitude(m)": 555167.6891210917,
        "Argument of Periapsis(deg)": 0.032417798594545036,
        "Eccentricity": 0.0,
        "Inclination(deg)": 53.0,
        "Latitude(deg)": -5.799150537512453,
        "Longitude(deg)": 116.7316154710472,
        "Mean Anomaly(deg)": -7.159198069225456,
        "RAAN(deg)": 224.95175438279503,
        "Satellite Name": "Starlink Shell 1 1008",
        "Satellite Number": 1008,
        "Semi-Major Axis(m)": 6931778.249405717,
        "Time(s)": 930
    },
    {
        "Altitude(m)": 555072.2663039524,
        "Argument of Periapsis(deg)": 0.03276637707405627,
        "Eccentricity": 0.0,
        "Inclination(deg)": 53.0,
        "Latitude(deg)": -5.296711773293733,
        "Longitude(deg)": 117.07042585298414,
        "Mean Anomaly(deg)": -6.532366865668785,
        "RAAN(deg)": 224.95123561271754,
        "Satellite Name": "Starlink Shell 1 1008",
        "Satellite Number": 1008,
        "Semi-Major Axis(m)": 6931778.249405717,
        "Time(s)": 940
    }
]